IRIDIUM 159             
1 43578U 18061K   23338.37798970  .00000555  00000+0  19121-3 0  9993
2 43578  86.3965  83.6369 0001946  96.3064 263.8353 14.34218247280689
IRIDIUM 180             
1 43922U 19002A   23338.58679489  .00000445  00000+0  15200-3 0  9990
2 43922  86.3986  20.4236 0001942  90.7811 269.3607 14.34216984256324
IRIDIUM 176             
1 43923U 19002B   23338.57475462  .00001630  00000+0  25433-3 0  9991
2 43923  86.6115  20.4607 0002312  92.8408 267.3074 14.72292848263061
IRIDIUM 168             
1 43924U 19002C   23338.51068035  .00000434  00000+0  14785-3 0  9999
2 43924  86.3988  20.5066 0002021  94.8087 265.3340 14.34217078256290
IRIDIUM 173             
1 43925U 19002D   23338.49799743  .00000434  00000+0  14790-3 0  9990
2 43925  86.3987  20.4390 0002059  92.2037 267.9395 14.34217222256274
IRIDIUM 169             
1 43926U 19002E   23338.25622321  .00000653  00000+0  20681-3 0  9991
2 43926  86.4240  52.1451 0004386 130.4860 229.6721 14.38619118257107
IRIDIUM 172             
1 43927U 19002F   23338.56141818  .00000460  00000+0  15704-3 0  9999
2 43927  86.3986  20.4173 0002016  90.7747 269.3680 14.34221500256297
IRIDIUM 175             
1 43928U 19002G   23338.90850918  .00001526  00000+0  23821-3 0  9999
2 43928  86.1518   4.5094 0002394  92.9081 267.2409 14.72216764263108
